0 DIRECTV 2 (DBS 2)
1 23192U 94047A   13278.81232918 -.00000249  00000-0  00000+0 0  1713
2 23192 006.0105 059.6994 0007457 202.9327 194.3416 00.98636822 79931
0 DIRECTV 2 (DBS 2)
1 23192U 94047A   13280.84424558 -.00000233  00000-0  00000+0 0  1726
2 23192 006.0149 059.6794 0007650 202.9454 195.8749 00.98636309 79950
0 DIRECTV 2 (DBS 2)
1 23192U 94047A   13283.77646681  .00000000  00000-0  10000-3 0  1742
2 23192 006.0033 059.6931 0009638 210.0921 149.9213 00.98631756 79982
0 DIRECTV 2 (DBS 2)
1 23192U 94047A   13283.81989587 -.00000173  00000-0  00000+0 0  1738
2 23192 006.0210 059.6503 0007950 203.4489 172.0300 00.98635246 79986
0 DIRECTV 2 (DBS 2)
1 23192U 94047A   13285.79991179 -.00000116  00000-0  00000+0 0  1745
2 23192 006.0250 059.6306 0008124 204.0659 154.5123 00.98634484 80007
0 DIRECTV 2 (DBS 2)
1 23192U 94047A   13287.67080914 -.00000060  00000-0  00000+0 0  1759
2 23192 006.0287 059.6116 0008267 204.8924 098.0328 00.98633845 80017
0 DIRECTV 2 (DBS 2)
1 23192U 94047A   13289.88266561 -.00000005  00000-0  00000+0 0  1768
2 23192 006.0329 059.5889 0008368 206.0377 162.3067 00.98633399 80040
0 DIRECTV 2 (DBS 2)
1 23192U 94047A   13292.06717096  .00000027  00000-0  00000+0 0  1770
2 23192 006.0372 059.5661 0008423 207.1718 216.8797 00.98633263 80066
